ODIN (ODIN)
1 49044U 21066A   22226.54986137  .00006071  00000+0  11357-3 0  9996
2 49044  51.6423  47.4617 0005600 119.7426 338.8654 15.50176695354233